[{"OBJECT_NAME":"PRAETORIAN SDA_610","OBJECT_ID":"2025-203J","EPOCH":"2026-03-09T13:44:25.913760","MEAN_MOTION":13.840113,"ECCENTRICITY":0.0007844,"INCLINATION":81.2976,"RA_OF_ASC_NODE":103.001,"ARG_OF_PERICENTER":103.3116,"MEAN_ANOMALY":256.8916,"EPHEMERIS_TYPE":0,"CLASSIFICATION_TYPE":"U","NORAD_CAT_ID":65573,"ELEMENT_SET_NO":999,"REV_AT_EPOCH":2491,"BSTAR":5.8921e-5,"MEAN_MOTION_DOT":7.7e-7,"MEAN_MOTION_DDOT":0},{"OBJECT_NAME":"SL-14 DEB","OBJECT_ID":"1978-100S","EPOCH":"2026-03-09T15:34:53.713056","MEAN_MOTION":13.37203542,"ECCENTRICITY":0.0270687,"INCLINATION":82.3771,"RA_OF_ASC_NODE":286.9496,"ARG_OF_PERICENTER":28.3611,"MEAN_ANOMALY":25.7474,"EPHEMERIS_TYPE":0,"CLASSIFICATION_TYPE":"U","NORAD_CAT_ID":19175,"ELEMENT_SET_NO":999,"REV_AT_EPOCH":74746,"BSTAR":0.022605,"MEAN_MOTION_DOT":0.00014569,"MEAN_MOTION_DDOT":0}]
